OBJECT_NAME,OBJECT_ID,EPOCH,MEAN_MOTION,ECCENTRICITY,INCLINATION,RA_OF_ASC_NODE,ARG_OF_PERICENTER,MEAN_ANOMALY,EPHEMERIS_TYPE,CLASSIFICATION_TYPE,NORAD_CAT_ID,ELEMENT_SET_NO,REV_AT_EPOCH,BSTAR,MEAN_MOTION_DOT,MEAN_MOTION_DDOT,RMS,DATA_SOURCE
STARLINK-11189 [DTC],2024-124F,2026-01-02T19:44:41.999971,15.69682060,.0001328,53.1570,126.3297,78.5236,289.5154,0,C,60188,2,1,.18994E-3,.23054E-3,0,0.361,SpaceX-E
STARLINK-11183 [DTC],2024-124G,2026-01-02T19:50:42.000000,15.69682195,.000082,53.1569,126.2522,87.9601,331.3829,0,C,60189,2,1,.168E-3,.20389E-3,0,0.413,SpaceX-E
STARLINK-11179 [DTC],2024-124H,2026-01-02T19:44:41.999971,15.69691388,.0001114,53.1568,126.2154,79.2653,344.2332,0,C,60190,2,1,.14053E-3,.1706E-3,0,0.390,SpaceX-E
STARLINK-11175 [DTC],2024-124J,2026-01-02T19:44:41.999971,15.69699787,.0001111,53.1568,126.1582,87.3887,3.8399,0,C,60191,2,1,.92972E-4,.11287E-3,0,0.411,SpaceX-E
STARLINK-11173 [DTC],2024-124K,2026-01-02T19:43:42.000010,15.69701207,.0001118,53.1570,126.1045,84.6741,30.3707,0,C,60192,2,1,.68702E-4,.83404E-4,0,0.392,SpaceX-E
STARLINK-11172 [DTC],2024-124L,2026-01-02T19:48:41.999990,15.69695402,.0001087,53.1571,126.0306,86.3515,76.0653,0,C,60193,2,1,.11639E-3,.14129E-3,0,0.415,SpaceX-E
STARLINK-11152 [DTC],2024-124M,2026-01-02T19:50:42.000000,15.69677184,.0001136,53.1568,125.9669,78.4569,119.5582,0,C,60194,2,1,.2592E-3,.31466E-3,0,0.415,SpaceX-E
STARLINK-11193 [DTC],2024-124N,2026-01-02T19:50:42.000000,15.69688839,.000105,53.1568,125.9100,88.4081,137.3444,0,C,60195,2,1,.1473E-3,.1788E-3,0,0.414,SpaceX-E
STARLINK-31869,2024-124P,2026-01-02T18:55:42.000038,15.30178430,.0001242,53.1579,268.5167,87.9840,38.7579,0,C,60196,2,1,.48676E-3,.14443E-3,0,0.286,SpaceX-E
STARLINK-32023,2024-124Q,2026-01-02T19:02:42.000029,15.30179183,.0001168,53.1592,268.8726,81.3246,240.2686,0,C,60197,2,1,.38244E-3,.11347E-3,0,0.266,SpaceX-E
STARLINK-32046,2024-124R,2026-01-02T19:00:42.000019,15.30173783,.0001305,53.1590,268.6242,80.6429,1.2646,0,C,60198,2,1,.59944E-3,.17786E-3,0,0.268,SpaceX-E
STARLINK-32049,2024-124S,2026-01-02T19:04:42.000038,15.30187903,.0001258,53.1596,268.7622,87.2162,294.3736,0,C,60199,2,1,.12879E-3,.38214E-4,0,0.284,SpaceX-E
STARLINK-32002,2024-124T,2026-01-02T19:03:41.999990,15.30180591,.0001253,53.1589,268.6276,84.9185,2.6461,0,C,60200,2,1,.43368E-3,.12868E-3,0,0.271,SpaceX-E
STARLINK-32020,2024-124U,2026-01-02T19:02:42.000029,15.30117665,.0001267,53.1578,268.3271,99.4402,135.5688,0,C,60201,2,1,.83086E-3,.24614E-3,0,0.952,SpaceX-E
STARLINK-32041,2024-124V,2026-01-02T19:00:42.000019,15.30171871,.0001321,53.1588,268.5998,85.1699,8.3627,0,C,60202,2,1,.79148E-3,.23486E-3,0,0.266,SpaceX-E
STARLINK-32138,2024-131A,2026-01-02T19:00:42.000019,15.30190184,.0001369,53.1601,358.6514,84.6032,56.7910,0,C,60255,2,1,-.20781E-5,-.61655E-6,0,0.286,SpaceX-E
STARLINK-32212,2024-131B,2026-01-02T19:01:41.999981,15.30182464,.0001416,53.1609,358.7983,89.4786,345.9423,0,C,60256,2,1,.15171E-3,.45006E-4,0,0.263,SpaceX-E
STARLINK-32166,2024-131C,2026-01-02T18:54:41.999990,15.30189048,.0001225,53.1608,358.8778,87.6495,286.0801,0,C,60257,2,1,.59662E-4,.17701E-4,0,0.304,SpaceX-E
STARLINK-32200,2024-131D,2026-01-02T19:03:41.999990,15.30152256,.000109,53.1608,358.7583,90.8173,3.8645,0,C,60258,2,1,.12468E-2,.3699E-3,0,0.325,SpaceX-E
STARLINK-32207,2024-131E,2026-01-02T18:59:41.999971,15.30168995,.0001215,53.1608,358.7588,106.3774,344.7565,0,C,60259,2,1,-.52031E-3,-.1542E-3,0,0.793,SpaceX-E
STARLINK-32125,2024-131F,2026-01-02T18:59:41.999971,15.31168475,.0002379,53.1607,358.1511,101.6403,290.2137,0,C,60260,2,1,.15215E-2,.46605E-3,0,0.275,SpaceX-E
STARLINK-32160,2024-131G,2026-01-02T18:59:41.999971,15.30197966,.0001515,53.1609,358.7995,76.6635,345.3390,0,C,60261,2,1,-.86697E-3,-.25708E-3,0,0.712,SpaceX-E
STARLINK-32163,2024-131H,2026-01-02T18:33:42.000019,15.30184506,.000123,53.1585,358.5296,87.1940,55.5542,0,C,60262,2,1,.19404E-3,.5757E-4,0,0.337,SpaceX-E
STARLINK-32148,2024-131J,2026-01-02T18:54:41.999990,15.30183219,.0001515,53.1591,358.5631,90.2177,80.5650,0,C,60263,2,1,.21964E-3,.65166E-4,0,0.319,SpaceX-E
STARLINK-32121,2024-131K,2026-01-02T18:54:41.999990,15.30189307,.0001332,53.1595,358.6022,88.8521,64.4713,0,C,60264,2,1,.10401E-3,.30862E-4,0,0.367,SpaceX-E
STARLINK-32120,2024-131L,2026-01-02T18:54:41.999990,15.30191837,.0001167,53.1607,358.9079,87.0349,269.2488,0,C,60265,2,1,-.64342E-4,-.19089E-4,0,0.342,SpaceX-E
STARLINK-32205,2024-131M,2026-01-02T18:55:42.000038,15.30184694,.0001244,53.1607,358.7460,89.3151,358.0387,0,C,60266,2,1,.12403E-3,.36796E-4,0,0.291,SpaceX-E
STARLINK-32158,2024-131N,2026-01-02T18:54:41.999990,15.30185626,.000126,53.1585,358.3793,90.3833,173.4717,0,C,60267,2,1,.2504E-4,.74282E-5,0,0.304,SpaceX-E
STARLINK-32167,2024-131P,2026-01-02T18:55:42.000038,15.30190459,.000132,53.1603,358.2327,86.3003,262.7938,0,C,60268,2,1,-.95711E-4,-.28395E-4,0,0.307,SpaceX-E
