{
  "60188": {
    "noradId": "60188",
    "tle": [
      "1 60188C 24124F   26002.82270833  .00023054  00000+0  18994-3 0    21",
      "2 60188  53.1570 126.3297 0001328  78.5236 289.5154 15.69682060    19"
    ]
  },
  "60189": {
    "noradId": "60189",
    "tle": [
      "1 60189C 24124G   26002.82687500  .00020389  00000+0  16800-3 0    27",
      "2 60189  53.1569 126.2522 0000820  87.9601 331.3829 15.69682195    18"
    ]
  },
  "60190": {
    "noradId": "60190",
    "tle": [
      "1 60190C 24124H   26002.82270833  .00017060  00000+0  14053-3 0    26",
      "2 60190  53.1568 126.2154 0001114  79.2653 344.2332 15.69691388    14"
    ]
  },
  "60191": {
    "noradId": "60191",
    "tle": [
      "1 60191C 24124J   26002.82270833  .00011287  00000+0  92972-4 0    29",
      "2 60191  53.1568 126.1582 0001111  87.3887   3.8399 15.69699787    17"
    ]
  },
  "60192": {
    "noradId": "60192",
    "tle": [
      "1 60192C 24124K   26002.82201389  .00008340  00000+0  68702-4 0    20",
      "2 60192  53.1570 126.1045 0001118  84.6741  30.3707 15.69701207    10"
    ]
  },
  "60193": {
    "noradId": "60193",
    "tle": [
      "1 60193C 24124L   26002.82548611  .00014129  00000+0  11639-3 0    21",
      "2 60193  53.1571 126.0306 0001087  86.3515  76.0653 15.69695402    10"
    ]
  },
  "60194": {
    "noradId": "60194",
    "tle": [
      "1 60194C 24124M   26002.82687500  .00031466  00000+0  25920-3 0    24",
      "2 60194  53.1568 125.9669 0001136  78.4569 119.5582 15.69677184    14"
    ]
  },
  "60195": {
    "noradId": "60195",
    "tle": [
      "1 60195C 24124N   26002.82687500  .00017880  00000+0  14730-3 0    26",
      "2 60195  53.1568 125.9100 0001050  88.4081 137.3444 15.69688839    14"
    ]
  },
  "60196": {
    "noradId": "60196",
    "tle": [
      "1 60196C 24124P   26002.78868056  .00014443  00000+0  48676-3 0    27",
      "2 60196  53.1579 268.5167 0001242  87.9840  38.7579 15.30178430    16"
    ]
  },
  "60197": {
    "noradId": "60197",
    "tle": [
      "1 60197C 24124Q   26002.79354167  .00011347  00000+0  38244-3 0    22",
      "2 60197  53.1592 268.8726 0001168  81.3246 240.2686 15.30179183    16"
    ]
  },
  "60198": {
    "noradId": "60198",
    "tle": [
      "1 60198C 24124R   26002.79215278  .00017786  00000+0  59944-3 0    25",
      "2 60198  53.1590 268.6242 0001305  80.6429   1.2646 15.30173783    15"
    ]
  },
  "60199": {
    "noradId": "60199",
    "tle": [
      "1 60199C 24124S   26002.79493056  .00003821  00000+0  12879-3 0    29",
      "2 60199  53.1596 268.7622 0001258  87.2162 294.3736 15.30187903    13"
    ]
  },
  "60200": {
    "noradId": "60200",
    "tle": [
      "1 60200C 24124T   26002.79423611  .00012868  00000+0  43368-3 0    20",
      "2 60200  53.1589 268.6276 0001253  84.9185   2.6461 15.30180591    17"
    ]
  },
  "60201": {
    "noradId": "60201",
    "tle": [
      "1 60201C 24124U   26002.79354167  .00024614  00000+0  83086-3 0    23",
      "2 60201  53.1578 268.3271 0001267  99.4402 135.5688 15.30117665    15"
    ]
  },
  "60202": {
    "noradId": "60202",
    "tle": [
      "1 60202C 24124V   26002.79215278  .00023486  00000+0  79148-3 0    23",
      "2 60202  53.1588 268.5998 0001321  85.1699   8.3627 15.30171871    15"
    ]
  },
  "60255": {
    "noradId": "60255",
    "tle": [
      "1 60255C 24131A   26002.79215278 -.00000062  00000+0 -20781-5 0    27",
      "2 60255  53.1601 358.6514 0001369  84.6032  56.7910 15.30190184    11"
    ]
  },
  "60256": {
    "noradId": "60256",
    "tle": [
      "1 60256C 24131B   26002.79284722  .00004501  00000+0  15171-3 0    23",
      "2 60256  53.1609 358.7983 0001416  89.4786 345.9423 15.30182464    17"
    ]
  },
  "60257": {
    "noradId": "60257",
    "tle": [
      "1 60257C 24131C   26002.78798611  .00001770  00000+0  59662-4 0    29",
      "2 60257  53.1608 358.8778 0001225  87.6495 286.0801 15.30189048    15"
    ]
  },
  "60258": {
    "noradId": "60258",
    "tle": [
      "1 60258C 24131D   26002.79423611  .00036990  00000+0  12468-2 0    29",
      "2 60258  53.1608 358.7583 0001090  90.8173   3.8645 15.30152256    10"
    ]
  },
  "60259": {
    "noradId": "60259",
    "tle": [
      "1 60259C 24131E   26002.79145833 -.00015420  00000+0 -52031-3 0    25",
      "2 60259  53.1608 358.7588 0001215 106.3774 344.7565 15.30168995    10"
    ]
  },
  "60260": {
    "noradId": "60260",
    "tle": [
      "1 60260C 24131F   26002.79145833  .00046605  00000+0  15215-2 0    26",
      "2 60260  53.1607 358.1511 0002379 101.6403 290.2137 15.31168475    14"
    ]
  },
  "60261": {
    "noradId": "60261",
    "tle": [
      "1 60261C 24131G   26002.79145833 -.00025708  00000+0 -86697-3 0    23",
      "2 60261  53.1609 358.7995 0001515  76.6635 345.3390 15.30197966    17"
    ]
  },
  "60262": {
    "noradId": "60262",
    "tle": [
      "1 60262C 24131H   26002.77340278  .00005757  00000+0  19404-3 0    24",
      "2 60262  53.1585 358.5296 0001230  87.1940  55.5542 15.30184506    18"
    ]
  },
  "60263": {
    "noradId": "60263",
    "tle": [
      "1 60263C 24131J   26002.78798611  .00006517  00000+0  21964-3 0    23",
      "2 60263  53.1591 358.5631 0001515  90.2177  80.5650 15.30183219    10"
    ]
  },
  "60264": {
    "noradId": "60264",
    "tle": [
      "1 60264C 24131K   26002.78798611  .00003086  00000+0  10401-3 0    26",
      "2 60264  53.1595 358.6022 0001332  88.8521  64.4713 15.30189307    18"
    ]
  },
  "60265": {
    "noradId": "60265",
    "tle": [
      "1 60265C 24131L   26002.78798611 -.00001909  00000+0 -64342-4 0    25",
      "2 60265  53.1607 358.9079 0001167  87.0349 269.2488 15.30191837    18"
    ]
  },
  "60266": {
    "noradId": "60266",
    "tle": [
      "1 60266C 24131M   26002.78868056  .00003680  00000+0  12403-3 0    23",
      "2 60266  53.1607 358.7460 0001244  89.3151 358.0387 15.30184694    11"
    ]
  },
  "60267": {
    "noradId": "60267",
    "tle": [
      "1 60267C 24131N   26002.78798611  .00000743  00000+0  25040-4 0    22",
      "2 60267  53.1585 358.3793 0001260  90.3833 173.4717 15.30185626    11"
    ]
  },
  "60268": {
    "noradId": "60268",
    "tle": [
      "1 60268C 24131P   26002.78868056 -.00002840  00000+0 -95711-4 0    28",
      "2 60268  53.1603 358.2327 0001320  86.3003 262.7938 15.30190459    13"
    ]
  }
}